IRIDIUM 166             
1 43570U 18061B   24315.33252829  .00000451  00000+0  15414-3 0  9991
2 43570  86.3926 300.7259 0002370  82.3887 277.7578 14.34221117329710
IRIDIUM 158             
1 43571U 18061C   24314.95197283 -.00000069  00000+0 -31854-4 0  9995
2 43571  86.3919 300.8949 0002307  87.4848 272.6612 14.34216624329623
IRIDIUM 165             
1 43572U 18061D   24314.83780618 -.00000047  00000+0 -24018-4 0  9993
2 43572  86.3924 300.9782 0002032  86.9911 273.1517 14.34217126329635
IRIDIUM 155             
1 43573U 18061E   24314.72998289  .00000118  00000+0  34939-4 0  9997
2 43573  86.3921 300.9211 0002443  85.7535 274.3939 14.34217393329586
IRIDIUM 154             
1 43574U 18061F   24314.71094792  .00000686  00000+0  23770-3 0  9993
2 43574  86.3920 301.0343 0002165  91.0358 269.1086 14.34218261329634
IRIDIUM 163             
1 43575U 18061G   24314.83145896 -.00000060  00000+0 -28472-4 0  9992
2 43575  86.3918 300.9172 0002245  92.9810 267.1642 14.34214723329626
IRIDIUM 156             
1 43576U 18061H   24314.94563110  .00000561  00000+0  19317-3 0  9999
2 43576  86.3925 300.8760 0002490  81.9201 278.2277 14.34217487329639
IRIDIUM 164             
1 43577U 18061J   24314.71729697  .00000742  00000+0  25798-3 0  9990
2 43577  86.3925 301.0027 0002102  84.6381 275.5055 14.34218700329642
